IRIDIUM 36 [-]          
1 24967U 97056C   24090.98249151  .00001009  00000+0  33607-3 0  9990
2 24967  86.4025 359.1179 0002230  81.1349 279.0100 14.36706454388562
IRIDIUM 39 [-]          
1 25042U 97069D   24090.91520343  .00001825  00000+0  48748-3 0  9995
2 25042  86.3937  41.0287 0018048 353.1294   6.9659 14.47802847384792
IRIDIUM 38 [-]          
1 25043U 97069E   24090.94485559  .00001226  00000+0  40615-3 0  9998
2 25043  86.3943  59.5244 0004018  98.5159 261.6494 14.37144954382274
IRIDIUM 42 [-]          
1 25077U 97077A   24090.90529882  .00001142  00000+0  39075-3 0  9993
2 25077  86.3935  65.1714 0002799  96.3844 263.7671 14.35455192377583
IRIDIUM 44 [-]          
1 25078U 97077B   24090.93503016  .00001278  00000+0  40560-3 0  9999
2 25078  86.3963  48.2680 0003858  68.3117 291.8492 14.39282693379929
IRIDIUM 45 [-]          
1 25104U 97082A   24090.94591377  .00032369  00000+0  18980-2 0  9998
2 25104  86.3718 258.9113 0166469 163.2693 197.4128 15.00605927385113
IRIDIUM 24 [-]          
1 25105U 97082B   24090.91126565  .00001129  00000+0  34450-3 0  9990
2 25105  86.3856 268.0129 0013538 100.0829 260.1899 14.41047572379356
IRIDIUM 51 [-]          
1 25262U 98018A   24090.90848494  .00029851  00000+0  14552-2 0  9997
2 25262  86.3879 268.9761 0153564 110.6986 251.0789 15.08309850379600
